GLOBALSTAR M057         
1 25943U 99058A   25247.02723195 -.00000085  00000+0  69489-4 0  9996
2 25943  51.9979 124.4561 0002484 159.1232 200.9720 12.24826802176592
GLOBALSTAR M059         
1 25944U 99058B   25247.29699212 -.00000001  00000+0  10598-2 0  9991
2 25944  52.0051 353.1562 0001099 110.1235 270.4855 11.99984607583546
GLOBALSTAR M056         
1 25945U 99058C   25247.01631648 -.00000098  00000+0 -11734-3 0  9992
2 25945  51.9998 353.8528 0000696  22.5453 150.3600 12.04779171172121
GLOBALSTAR M031         
1 25946U 99058D   25247.22614609 -.00000093  00000+0 -23842-4 0  9993
2 25946  51.9939 240.8763 0001402 345.1761  27.2442 12.16039682174166
GLOBALSTAR M039         
1 25961U 99062A   25247.10744850 -.00000071  00000+0  18191-3 0  9999
2 25961  51.9862  28.3381 0003058 148.5942 211.5107 12.62331513190183
GLOBALSTAR M034         
1 25962U 99062B   25247.21301192 -.00000092  00000+0 -17214-3 0  9999
2 25962  51.9864 165.9652 0013631 189.4835 338.0337 11.79448071147714
GLOBALSTAR M029         
1 25963U 99062C   25247.22668463 -.00000046  00000+0  49898-3 0  9999
2 25963  51.9780 241.3142 0002457 276.9836  97.0286 11.99900656178614
GLOBALSTAR M061         
1 25964U 99062D   25247.27595263 -.00000096  00000+0 -25727-3 0  9993
2 25964  51.9831 350.8880 0006574 113.6859 260.7644 11.76775477130490
